OSCAR 7 (AO-7)          
1 07530U 74089B   23319.57897810 -.00000039  00000+0  46529-4 0  9998
2 07530 101.9638 307.3615 0012312 133.2432 342.1015 12.53669210242141
PHASE 3B (AO-10)        
1 14129U 83058B   23319.26515429 -.00000264  00000+0  00000+0 0  9994
2 14129  27.4534  13.0159 6036356 220.6684  73.3198  2.05873575276031
UOSAT 2 (UO-11)         
1 14781U 84021B   23319.50991407  .00001729  00000+0  20568-3 0  9991
2 14781  97.6780 290.7971 0009778  68.3468 291.8788 14.85597491116601
LUSAT (LO-19)           
1 20442U 90005G   23319.51524819  .00000250  00000+0  10726-3 0  9994
2 20442  98.8631 299.4107 0012805  94.5824 265.6823 14.33367173767021
EYESAT A (AO-27)        
1 22825U 93061C   23319.37655172  .00000167  00000+0  81732-4 0  9990
2 22825  98.8222   4.5675 0008217 354.1626   5.9458 14.30379568571903
ITAMSAT (IO-26)         
1 22826U 93061D   23319.13165189  .00000190  00000+0  90121-4 0  9997
2 22826  98.8168   4.1807 0008487 339.4284  20.6556 14.30748749572142
RADIO ROSTO (RS-15)     
1 23439U 94085A   23319.48429554 -.00000032  00000+0  29396-3 0  9993
2 23439  64.8210  30.9909 0157649 183.4495 176.5352 11.27575707189380
JAS-2 (FO-29)           
1 24278U 96046B   23319.47328051  .00000061  00000+0  97651-4 0  9994
2 24278  98.5527 277.5517 0350635  24.7286 337.0219 13.53161623345396
TECHSAT 1B (GO-32)      
1 25397U 98043D   23319.43902162  .00000138  00000+0  80229-4 0  9991
2 25397  98.8912 278.3482 0002317  72.2156 287.9275 14.23942336316855
ISS (ZARYA)             
1 25544U 98067A   23319.78559582  .00014454  00000+0  26671-3 0  9999
2 25544  51.6430 297.6425 0000959 302.8059 120.3429 15.49353769425303
PCSAT (NO-44)           
1 26931U 01043C   23319.51939548  .00000203  00000+0  10851-3 0  9993
2 26931  67.0496 166.0415 0006070 256.8596 103.1828 14.31041334155235
SAUDISAT 1C (SO-50)     
1 27607U 02058C   23319.57001316  .00001485  00000+0  22086-3 0  9996
2 27607  64.5529 160.6397 0051814 190.9947 169.0029 14.77907329124592
CUTE-1 (CO-55)          
1 27844U 03031E   23319.01680628  .00000484  00000+0  23448-3 0  9990
2 27844  98.6795 324.0961 0010639  52.8075 307.4073 14.22960001 57182
CUBESAT XI-IV (CO-57)   
1 27848U 03031J   23319.50300687  .00000392  00000+0  19560-3 0  9990
2 27848  98.6829 324.9290 0010682  65.7220 294.5073 14.22446287 57014
MOZHAYETS 4 (RS-22)     
1 27939U 03042A   23319.58210829  .00001556  00000+0  27400-3 0  9994
2 27939  98.2638 107.9331 0012717  23.4491  44.2614 14.68973120 76637
CUBESAT XI-V            
1 28895U 05043F   23319.59609190  .00002041  00000+0  37747-3 0  9998
2 28895  98.1747  90.7533 0015291 317.7608  42.2417 14.66397595962997
CUTE-1.7+APD II (CO-65) 
1 32785U 08021C   23319.46613342  .00004788  00000+0  45548-3 0  9998
2 32785  97.7279 282.4866 0010713 330.8677  29.1944 14.93866651843463
SEEDS II (CO-66)        
1 32791U 08021J   23319.45782127  .00007324  00000+0  60587-3 0  9991
2 32791  97.6745 287.8980 0008601 259.4480 100.5774 14.99171282844386
YUBILEINY (RS-30)       
1 32953U 08025A   23319.50957268  .00000036  00000+0  18566-3 0  9994
2 32953  82.5055 222.9706 0018457 213.0718 146.9209 12.43131985702315
KKS-1 (KISEKI)          
1 33499U 09002H   23319.56974137  .00001808  00000+0  25981-3 0  9993
2 33499  98.1545 213.7120 0010075  98.9721 261.2630 14.77672764796415
SWISSCUBE               
1 35932U 09051B   23319.17729565  .00001460  00000+0  32680-3 0  9999
2 35932  98.4969 192.9696 0006176 262.6861  97.3635 14.58208228751211
BEESAT-1                
1 35933U 09051C   23319.56319914  .00001262  00000+0  28480-3 0  9999
2 35933  98.4893 194.5311 0004499 277.0108  83.0578 14.58056140751346
ITUPSAT1                
1 35935U 09051E   23319.56623524  .00001165  00000+0  26943-3 0  9990
2 35935  98.4992 194.4204 0006805 282.1966  77.8469 14.57072002751007
XIWANG-1 (HOPE-1)       
1 36122U 09072B   23319.48230071 -.00000025  00000+0  48923-4 0  9992
2 36122 100.2622 278.7167 0006941 233.5261 126.5213 13.16390623668700
JUGNU                   
1 37839U 11058B   23319.61345767  .00000544  00000+0  14632-3 0  9993
2 37839  19.9616 284.1390 0019020  89.5140  67.7569 14.13057461625229
SRMSAT                  
1 37841U 11058D   23319.50754059  .00000511  00000+0  13494-3 0  9991
2 37841  19.9735  15.0709 0011617 254.8693 236.8165 14.10983293624209
M-CUBED & EXP-1 PRIME   
1 37855U 11061F   23319.34625762  .00032967  00000+0  77653-3 0  9997
2 37855 101.6995   7.6871 0096830 293.9173  65.1936 15.37062824659693
STRAND-1                
1 39090U 13009E   23319.51719998  .00000490  00000+0  18417-3 0  9997
2 39090  98.3817 148.7249 0009046 166.3951 193.7481 14.35774568561436
BEESAT-3                
1 39135U 13015F   23318.99131711  .00190973  00000+0  14611-2 0  9993
2 39135  64.8443 183.3242 0011312 244.1870 115.8116 15.71244560585353
BEESAT-2                
1 39136U 13015G   23318.95517034  .00107115  00000+0  12476-2 0  9999
2 39136  64.8585 199.1783 0020214 255.1655 104.7253 15.60871773585012
ZACUBE-1 (TSHEPISOSAT)  
1 39417U 13066B   23319.43914073  .00004013  00000+0  44799-3 0  9992
2 39417  97.7071 276.0941 0054257 147.7495 212.7058 14.86471219539652
GOMX-1                  
1 39430U 13066Q   23319.55706767  .00002387  00000+0  41361-3 0  9993
2 39430  97.7572 201.7767 0142359 213.6943 145.5150 14.62724322531474
CUBEBUG-2 (LO-74)       
1 39440U 13066AA  23319.54216623  .00004091  00000+0  51370-3 0  9995
2 39440  97.7899 263.5928 0071461 254.3587 104.9732 14.80878229536547
FUNCUBE-1 (AO-73)       
1 39444U 13066AE  23319.48181264  .00004365  00000+0  46313-3 0  9999
2 39444  97.6928 278.8477 0052636 131.4336 229.1421 14.88540357538139
UWE-3                   
1 39446U 13066AG  23319.60035867  .00003462  00000+0  41278-3 0  9994
2 39446  97.7551 269.7419 0062719 202.0667 157.7845 14.83521975536868
SPROUT                  
1 39770U 14029E   23319.63715460  .00033665  00000+0  19711-2 0  9995
2 39770  98.0020  92.4384 0005231 176.0101 184.1170 15.11731898514954
UNISAT-6                
1 40012U 14033C   23319.44524434  .00003168  00000+0  43733-3 0  9996
2 40012  97.6823 126.2650 0053478 285.1428  74.3871 14.77841976506109
DUCHIFAT-1              
1 40021U 14033M   23319.38585932  .00009144  00000+0  71833-3 0  9991
2 40021  98.0743 288.6345 0014932 102.9669 257.3222 15.01050367511848
QB50P1                  
1 40025U 14033R   23319.55595692  .00006627  00000+0  59684-3 0  9991
2 40025  98.0160 269.3302 0011922 141.9517 218.2548 14.95892841510754
ZDPS 2A                 
1 40901U 15049C   23319.52763185  .00137527  00000+0  13150-2 0  9994
2 40901  97.4248 339.9503 0001082 323.6410  36.4777 15.66271625452705
ZDPS 2B                 
1 40902U 15049D   23319.54946267  .00211140  00000+0  15431-2 0  9999
2 40902  97.4359 339.2965 0000199 248.7285 111.3957 15.72599434452744
KAITUO 1A               
1 40904U 15049F   23319.58834836  .00019653  00000+0  62892-3 0  9992
2 40904  97.4967 326.6094 0010484  15.2585 344.8971 15.32394361451445
2015-049G               
1 40905U 15049G   23319.55975056  .00008694  00000+0  36542-3 0  9996
2 40905  97.5262 322.2559 0013631  24.4071 335.7808 15.23583543450980
XW-2C                   
1 40906U 15049H   23319.56937836  .00016511  00000+0  54624-3 0  9990
2 40906  97.4915 327.6866 0010330   1.1769 358.9494 15.31363721451526
XW-2D                   
1 40907U 15049J   23319.54322314  .00019990  00000+0  59915-3 0  9990
2 40907  97.4886 328.7096 0008719 355.0024   5.1131 15.34493753451648
LILACSAT-2              
1 40908U 15049K   23319.56088450  .00007543  00000+0  33219-3 0  9993
2 40908  97.5277 322.4486 0014313  29.9648 330.2404 15.22036517450804
XW-2E                   
1 40909U 15049L   23319.54526281  .00063268  00000+0  10051-2 0  9995
2 40909  97.4400 337.1863 0003618 308.2107  51.8820 15.53122235452507
XW-2F                   
1 40910U 15049M   23319.55172749  .00059239  00000+0  97375-3 0  9992
2 40910  97.4506 336.4524 0004448 310.9354  49.1513 15.52183716452361
XW-2B                   
1 40911U 15049N   23319.56548673  .00020258  00000+0  61343-3 0  9992
2 40911  97.4863 329.0632 0008830 356.2544   3.8631 15.34165042451526
KAITUO 1B               
1 40912U 15049P   23319.55707633  .00125874  00000+0  11972-2 0  9997
2 40912  97.3973 342.1397 0003436 207.9466 152.1610 15.66437584453091
LAPAN-A2                
1 40931U 15052B   23317.35474638  .00001462  00000+0  11169-3 0  9999
2 40931   5.9993 101.5318 0013595 249.5202 110.3466 14.77471474439339
E-ST@R-II               
1 41459U 16025D   23319.53658454  .00051845  00000+0  10340-2 0  9997
2 41459  98.1613 177.3709 0079874 288.7002  70.5586 15.43230407416123
AIST-2D (RS-48)         
1 41465U 16026B   23319.53697655  .00049102  00000+0  41522-3 0  9991
2 41465  96.9672 188.9583 0007059  43.1753 317.0063 15.69574632423600
CAS-2T & KS-1Q          
1 41847U 16066G   23319.16270769  .00001756  00000+0  26530-3 0  9996
2 41847  98.4883  26.9278 0358547 104.1769 259.9525 14.40341063368538
ZHUHAI-1 02 (CAS-4B)    
1 42759U 17034B   23319.56661118  .00010544  00000+0  47722-3 0  9992
2 42759  43.0158 352.2046 0010834   1.9564 358.1326 15.20917997354654
ZHUHAI-1 01 (CAS-4A)    
1 42761U 17034D   23319.58114057  .00011111  00000+0  50141-3 0  9992
2 42761  43.0155 350.6234 0011478   2.4888 357.6017 15.20970405354659
MAX VALIER SAT          
1 42778U 17036P   23319.00484618  .00037677  00000+0  70623-3 0  9994
2 42778  97.1343 351.0210 0004268 268.3044  91.7718 15.48558793355984
RADFXSAT (FOX-1B)       
1 43017U 17073E   23319.15849725  .00010372  00000+0  69730-3 0  9992
2 43017  97.6051 197.5795 0223075 289.9756  67.7562 14.88816196323624
FOX-1D (AO-92)          
1 43137U 18004AC  23319.17159980  .00107802  00000+0  10361-2 0  9999
2 43137  97.3122  41.5629 0003738 286.5511  73.5339 15.66233091325758
DIWATA-2B               
1 43678U 18084H   23319.58105356  .00001798  00000+0  17373-3 0  9998
2 43678  98.0446 106.8789 0010023  28.5327 331.6439 14.94117035274864
